*******************************************************************************
JPL/HORIZONS               2324 Janice (1978 VS4)          2023-Sep-04 11:17:16
Rec #:    2324 (+COV) Soln.date: 2023-Aug-22_19:46:33   # obs: 4709 (1934-2023)
 
IAU76/J2000 helio. ecliptic osc. elements (au, days, deg., period=Julian yrs):
 
  EPOCH=  2457614.5 ! 2016-Aug-14.00 (TDB)         Residual RMS= .24479
   EC= .1794197074503603   QR= 2.531346734723467   TP= 2456849.7904730802
   OM= 315.7257965246729   W=  305.5291227846847   IN= .3990984699565845
   A= 3.084825163005407    MA= 139.1088442709944   ADIST= 3.638303591287348
   PER= 5.41819            N= .181910699           ANGMOM= .029722918
   DAN= 2.70363            DDN= 3.33304            L= 261.2555767
   B= -.3247935            MOID= 1.51583004        TP= 2014-Jul-11.2904730802
 
Asteroid physical parameters (km, seconds, rotational period in hours):
   GM= n.a.                RAD= 14.2315            ROTPER= 23.2
   H= 11.66                G= .150                 B-V= n.a.
                           ALBEDO= .060            STYP= n.a.

ASTEROID comments: 
1: soln ref.= JPL#58, OCC=0
2: source=ORB
*******************************************************************************


*******************************************************************************
Ephemeris / API_USER Mon Sep  4 11:17:16 2023 Pasadena, USA      / Horizons
*******************************************************************************
Target body name: 2324 Janice (1978 VS4)          {source: JPL#58}
Center body name: Solar System Barycenter (0)     {source: DE441}
Center-site name: BODY CENTER
*******************************************************************************
Start time      : A.D. 2023-Aug-12 00:00:00.0000 TDB
Stop  time      : A.D. 2023-Aug-13 00:00:00.0000 TDB
Step-size       : 2880 minutes
*******************************************************************************
Center geodetic : 0.0, 0.0, 0.0                   {E-lon(deg),Lat(deg),Alt(km)}
Center cylindric: 0.0, 0.0, 0.0                   {E-lon(deg),Dxy(km),Dz(km)}
Center radii    : (undefined)
Small perturbers: Yes                             {source: SB441-N16}
Output units    : KM-S
Calendar mode   : Mixed Julian/Gregorian
Output type     : GEOMETRIC cartesian states
Output format   : 2 (position and velocity)
Reference frame : Ecliptic of J2000.0
*******************************************************************************
Initial IAU76/J2000 heliocentric ecliptic osculating elements (au, days, deg.):
  EPOCH=  2457614.5 ! 2016-Aug-14.00 (TDB)         Residual RMS= .24479        
   EC= .1794197074503603   QR= 2.531346734723467   TP= 2456849.7904730802      
   OM= 315.7257965246729   W=  305.5291227846847   IN= .3990984699565845       
  Equivalent ICRF heliocentric cartesian coordinates (au, au/d):
   X= 2.188544026716630E+00  Y= 2.540912427130036E+00  Z= 1.128332363384007E+00
  VX=-6.057092501895994E-03 VY= 5.400885290203645E-03 VZ= 2.341467335635124E-03
Asteroid physical parameters (km, seconds, rotational period in hours):        
   GM= n.a.                RAD= 14.2315            ROTPER= 23.2                
   H= 11.66                G= .150                 B-V= n.a.                   
                           ALBEDO= .060            STYP= n.a.                  
*******************************************************************************
JDTDB
   X     Y     Z
   VX    VY    VZ
*******************************************************************************
$$SOE
2460168.500000000 = A.D. 2023-Aug-12 00:00:00.0000 TDB 
 X =-3.172189168471000E+08 Y = 3.966518063597152E+08 Z = 4.677991937808096E+05
 VX=-1.042352427939079E+01 VY=-1.126828449261009E+01 VZ=-1.068927695558779E-01
$$EOE
*******************************************************************************
 
TIME

  Barycentric Dynamical Time ("TDB" or T_eph) output was requested. This
continuous coordinate time is equivalent to the relativistic proper time
of a clock at rest in a reference frame co-moving with the solar system
barycenter but outside the system's gravity well. It is the independent
variable in the solar system relativistic equations of motion.

  TDB runs at a uniform rate of one SI second per second and is independent
of irregularities in Earth's rotation.
 
CALENDAR SYSTEM

  Mixed calendar mode was active such that calendar dates after AD 1582-Oct-15
(if any) are in the modern Gregorian system. Dates prior to 1582-Oct-5 (if any)
are in the Julian calendar system, which is automatically extended for dates
prior to its adoption on 45-Jan-1 BC.  The Julian calendar is useful for
matching historical dates. The Gregorian calendar more accurately corresponds
to the Earth's orbital motion and seasons. A "Gregorian-only" calendar mode is
available if such physical events are the primary interest.

REFERENCE FRAME AND COORDINATES

  Ecliptic at the standard reference epoch

    Reference epoch: J2000.0
    X-Y plane: adopted Earth orbital plane at the reference epoch
               Note: IAU76 obliquity of 84381.448 arcseconds wrt ICRF X-Y plane
    X-axis   : ICRF
    Z-axis   : perpendicular to the X-Y plane in the directional (+ or -) sense
               of Earth's north pole at the reference epoch.

  Symbol meaning:

    JDTDB    Julian Day Number, Barycentric Dynamical Time
      X      X-component of position vector (km)
      Y      Y-component of position vector (km)
      Z      Z-component of position vector (km)
      VX     X-component of velocity vector (km/sec)                           
      VY     Y-component of velocity vector (km/sec)                           
      VZ     Z-component of velocity vector (km/sec)                           

ABERRATIONS AND CORRECTIONS

 Geometric state vectors have NO corrections or aberrations applied.

Computations by ...

    Solar System Dynamics Group, Horizons On-Line Ephemeris System
    4800 Oak Grove Drive, Jet Propulsion Laboratory
    Pasadena, CA  91109   USA

    General site: https://ssd.jpl.nasa.gov/
    Mailing list: https://ssd.jpl.nasa.gov/email_list.html
    System news : https://ssd.jpl.nasa.gov/horizons/news.html
    User Guide  : https://ssd.jpl.nasa.gov/horizons/manual.html
    Connect     : browser        https://ssd.jpl.nasa.gov/horizons/app.html#/x
                  API            https://ssd-api.jpl.nasa.gov/doc/horizons.html
                  command-line   telnet ssd.jpl.nasa.gov 6775
                  e-mail/batch   https://ssd.jpl.nasa.gov/ftp/ssd/hrzn_batch.txt
                  scripts        https://ssd.jpl.nasa.gov/ftp/ssd/SCRIPTS
    Author      : Jon.D.Giorgini@jpl.nasa.gov
*******************************************************************************
